NORAD_CAT_ID,OBJECT_NAME,OBJECT_TYPE,EPOCH,MEAN_MOTION,ECCENTRICITY,INCLINATION,RA_OF_ASC_NODE,ARG_OF_PERICENTER,MEAN_ANOMALY,BSTAR,MEAN_MOTION_DOT,MEAN_MOTION_DDOT,TLE_LINE0,TLE_LINE1,TLE_LINE2,SEMIMAJOR_AXIS,PERIOD,APOGEE,PERIGEE,DECAYED
52870.0,STARLINK-4195,PAYLOAD,2022-10-02 22:00:00,15.08845384,0.0002115,53.2184,252.5187,41.841,268.6302,-6.1465e-05,-1.267e-05,0.0,0 STARLINK-4195,1 52870U 22062AS  22275.91667824 -.00001267  00000-0 -61465-4 0  9999,2 52870  53.2184 252.5187 0002115  41.8410 268.6302 15.08845384  1301,6917.864000000001,95.437,541.192,538.266,0.0
52870.0,STARLINK-4195,PAYLOAD,2022-10-03 06:00:00,15.08831494,0.0002372,53.2182,251.0243,39.9739,282.1014,0.0013149,0.00020696,0.0,0 STARLINK-4195,1 52870U 22062AS  22276.25001157  .00020696  00000-0  13149-2 0  9997,2 52870  53.2182 251.0243 0002372  39.9739 282.1014 15.08831494 17195,6917.906,95.438,541.4119999999998,538.13,0.0
52870.0,STARLINK-4195,PAYLOAD,2022-10-03 14:00:01,15.0888196,0.0002266999999999,53.2181,249.5272,38.4706,295.1922,-0.0045235,-0.00071649,0.0,0 STARLINK-4195,1 52870U 22062AS  22276.58334491 -.00071649  00000-0 -45235-2 0  9990,2 52870  53.2181 249.5272 0002267  38.4706 295.1922 15.08881960  1300,6917.752,95.435,541.185,538.049,0.0
52870.0,STARLINK-4195,PAYLOAD,2022-10-03 22:00:00,15.08839856,0.0002108,53.2182,248.0299,41.8982,303.3763,0.0011496,0.00018055,0.0,0 STARLINK-4195,1 52870U 22062AS  22276.91667824  .00018055  00000-0  11496-2 0  9998,2 52870  53.2182 248.0299 0002108  41.8982 303.3763 15.08839856  1304,6917.880999999999,95.438,541.2040000000002,538.288,0.0
52870.0,STARLINK-4195,PAYLOAD,2022-10-04 06:00:00,15.08830664,0.0002283,53.2182,246.5354,37.6106,319.2736,0.00069562,0.00010797,0.0,0 STARLINK-4195,1 52870U 22062AS  22277.25001157  .00010797  00000-0  69562-3 0  9990,2 52870  53.2182 246.5354 0002283  37.6106 319.2736 15.08830664 17349,6917.909000000002,95.438,541.3530000000002,538.195,0.0
52870.0,STARLINK-4195,PAYLOAD,2022-10-04 14:00:01,15.08850087,0.0002174999999999,53.2182,245.0381,36.1831,332.2879,-0.0023396999999999,-0.00037343,0.0,0 STARLINK-4195,1 52870U 22062AS  22277.58334491 -.00037343  00000-0 -23397-2 0  9999,2 52870  53.2182 245.0381 0002175  36.1831 332.2879 15.08850087  1305,6917.85,95.437,541.219,538.21,0.0
52870.0,STARLINK-4195,PAYLOAD,2022-10-04 22:00:00,15.08840303,0.0002109999999999,53.2185,243.541,41.5404,338.5191,-0.00060057,-9.834e-05,0.0,0 STARLINK-4195,1 52870U 22062AS  22277.91667824 -.00009834  00000-0 -60057-3 0  9994,2 52870  53.2185 243.5410 0002110  41.5404 338.5191 15.08840303  1305,6917.879,95.438,541.2040000000002,538.285,0.0
52870.0,STARLINK-4195,PAYLOAD,2022-10-05 08:00:01,15.08814152,0.0002338,53.218,241.6727,37.6241,86.9266,0.0013027999999999,0.00020492,0.0,0 STARLINK-4195,1 52870U 22062AS  22278.33334491  .00020492  00000-0  13028-2 0  9998,2 52870  53.2180 241.6727 0002338  37.6241  86.9266 15.08814152 17506,6917.959,95.439,541.442,538.207,0.0
52870.0,STARLINK-4195,PAYLOAD,2022-10-05 14:00:01,15.08827436,0.0002181,53.2185,240.549,38.1756,5.1116,-0.00058925,-9.651e-05,0.0,0 STARLINK-4195,1 52870U 22062AS  22278.58335648 -.00009651  00000-0 -58925-3 0  9992,2 52870  53.2185 240.5490 0002181  38.1756   5.1116 15.08827436  1306,6917.919,95.438,541.293,538.275,0.0
52870.0,STARLINK-4195,PAYLOAD,2022-10-05 22:00:00,15.08831566,0.0002056999999999,53.2189,239.0522,41.5072,13.2908,-0.00027177,-4.61e-05,0.0,0 STARLINK-4195,1 52870U 22062AS  22278.91667824 -.00004610  00000-0 -27177-3 0  9998,2 52870  53.2189 239.0522 0002057  41.5072  13.2908 15.08831566  1308,6917.906,95.438,541.194,538.3480000000002,0.0
52870.0,STARLINK-4195,PAYLOAD,2022-10-06 06:00:00,15.08847299,0.0002169,53.2181,237.5574,38.5351,27.8453,-0.0043981,-0.00069624,0.0,0 STARLINK-4195,1 52870U 22062AS  22279.25001157 -.00069624  00000-0 -43981-2 0  9993,2 52870  53.2181 237.5574 0002169  38.5351  27.8453 15.08847299 17640,6917.858,95.437,541.224,538.2230000000002,0.0
52870.0,STARLINK-4195,PAYLOAD,2022-10-06 14:00:01,15.08869202,0.0002075,53.219,236.06,37.9436,40.02,-0.0029745,-0.00047355,0.0,0 STARLINK-4195,1 52870U 22062AS  22279.58334491 -.00047355  00000-0 -29745-2 0  9998,2 52870  53.2190 236.0600 0002075  37.9436  40.0200 15.08869202  1308,6917.791,95.436,541.092,538.221,0.0
52870.0,STARLINK-4195,PAYLOAD,2022-10-06 22:42:55,15.08853716,0.0001986,53.2193,234.4297,41.8763,209.6108,-0.001148,-0.00018519,0.0,0 STARLINK-4195,1 52870U 22062AS  22279.94646991 -.00018519  00000-0 -11480-2 0  9996,2 52870  53.2193 234.4297 0001986  41.8763 209.6108 15.08853716  1305,6917.8380000000025,95.437,541.077,538.33,0.0
52870.0,STARLINK-4195,PAYLOAD,2022-10-07 00:00:00,15.08852212,0.0002021999999999,53.2194,234.1897,40.8173,141.6598,-0.0012684,-0.00020425,0.0,0 STARLINK-4195,1 52870U 22062AS  22280.00001157 -.00020425  00000-0 -12684-2 0  9990,2 52870  53.2194 234.1897 0002022  40.8173 141.6598 15.08852212 17760,6917.843000000003,95.437,541.107,538.309,0.0
52870.0,STARLINK-4195,PAYLOAD,2022-10-07 14:00:01,15.08843871,0.0001936,53.2193,231.5709,38.7325,74.0387,-0.00032426,-5.446e-05,0.0,0 STARLINK-4195,1 52870U 22062AS  22280.58334491 -.00005446  00000-0 -32426-3 0  9996,2 52870  53.2193 231.5709 0001936  38.7325  74.0387 15.08843871  1309,6917.869000000002,95.437,541.073,538.394,0.0
52870.0,STARLINK-4195,PAYLOAD,2022-10-07 22:00:00,15.08856504,0.0001802,53.2196,230.0743,39.7224,84.63799999999998,-0.0026732,-0.000426,0.0,0 STARLINK-4195,1 52870U 22062AS  22280.91667824 -.00042600  00000-0 -26732-2 0  9997,2 52870  53.2196 230.0743 0001802  39.7224  84.6380 15.08856504 17893,6917.83,95.437,540.942,538.448,0.0
52870.0,STARLINK-4195,PAYLOAD,2022-10-08 14:00:01,15.08817126,0.0001819,53.2194,227.0821,37.8851,109.6464,0.00021809,3.182e-05,0.0,0 STARLINK-4195,1 52870U 22062AS  22281.58334491  .00003182  00000-0  21809-3 0  9993,2 52870  53.2194 227.0821 0001819  37.8851 109.6464 15.08817126  1304,6917.95,95.439,541.0740000000002,538.557,0.0
52870.0,STARLINK-4195,PAYLOAD,2022-10-08 22:00:00,15.08849041,0.0001776,53.2197,225.5858,42.5254,116.5674,-0.0011103,-0.0001792,0.0,0 STARLINK-4195,1 52870U 22062AS  22281.91667824 -.00017920  00000-0 -11103-2 0  9991,2 52870  53.2197 225.5858 0001776  42.5254 116.5674 15.08849041  1303,6917.853,95.437,540.946,538.489,0.0
52870.0,STARLINK-4195,PAYLOAD,2022-10-09 14:00:01,15.08862034,0.0001715,53.2193,222.5934,37.9805,144.3091,-0.00070074,-0.0001143,0.0,0 STARLINK-4195,1 52870U 22062AS  22282.58334491 -.00011430  00000-0 -70074-3 0  9999,2 52870  53.2193 222.5934 0001715  37.9805 144.3091 15.08862034  1303,6917.813,95.436,540.864,538.492,0.0
52870.0,STARLINK-4195,PAYLOAD,2022-10-09 22:00:00,15.08882026,0.0001696999999999,53.2185,221.0957,39.6382,154.2397,-0.0077808999999999,-0.0012217,0.0,0 STARLINK-4195,1 52870U 22062AS  22282.91667824 -.00122170  00000-0 -77809-2 0  9991,2 52870  53.2185 221.0957 0001697  39.6382 154.2397 15.08882026 18200,6917.752,95.435,540.7909999999998,538.443,0.0
52870.0,STARLINK-4195,PAYLOAD,2022-10-10 00:00:00,15.08841532,0.0001793,53.2184,220.722,36.377,250.4118,-0.0038856,-0.00061602,0.0,0 STARLINK-4195,1 52870U 22062AS  22283.00001157 -.00061602  00000-0 -38856-2 0  9994,2 52870  53.2184 220.7220 0001793  36.3770 250.4118 15.08841532  1300,6917.876,95.437,540.981,538.5,0.0
52870.0,STARLINK-4195,PAYLOAD,2022-10-10 08:00:01,15.08832421,0.0002028,53.2174,219.2262,29.9421,268.4053,0.00053289,8.201e-05,0.0,0 STARLINK-4195,1 52870U 22062AS  22283.33334491  .00008201  00000-0  53289-3 0  9992,2 52870  53.2174 219.2262 0002028  29.9421 268.4053 15.08832421 18268,6917.904,95.438,541.172,538.366,0.0
52870.0,STARLINK-4195,PAYLOAD,2022-10-10 14:00:01,15.08836748,0.0001950999999999,53.2175,218.1022,30.7238,186.3172,1.7809000000000002e-05,-5e-08,0.0,0 STARLINK-4195,1 52870U 22062AS  22283.58334491 -.00000005  00000-0  17809-4 0  9993,2 52870  53.2175 218.1022 0001951  30.7238 186.3172 15.08836748  1304,6917.89,95.438,541.105,538.406,0.0
52870.0,STARLINK-4195,PAYLOAD,2022-10-10 16:00:00,15.08807151,0.0001678,53.2188,217.7295,43.2324,266.8166,0.0042283,0.0006758999999999,0.0,0 STARLINK-4195,1 52870U 22062AS  22283.66667824  .00067590  00000-0  42283-2 0  9994,2 52870  53.2188 217.7295 0001678  43.2324 266.8166 15.08807151 18318,6917.981,95.44,541.007,538.685,0.0
52870.0,STARLINK-4195,PAYLOAD,2022-10-10 22:00:01,15.08956264,0.0001644,53.2184,216.6067,41.8704,186.9058,-0.02228,-0.00339589,0.0,0 STARLINK-4195,1 52870U 22062AS  22283.91668981 -.00339589  00000-0 -22280-1 0  9993,2 52870  53.2184 216.6067 0001644  41.8704 186.9058 15.08956264  1301,6917.525,95.43,540.5269999999998,538.253,0.0
52870.0,STARLINK-4195,PAYLOAD,2022-10-11 06:00:00,15.08787276,0.0001986999999999,53.2188,215.1136,40.179,200.1323,0.0030464,0.00048459,0.0,0 STARLINK-4195,1 52870U 22062AS  22284.25001157  .00048459  00000-0  30464-2 0  9992,2 52870  53.2188 215.1136 0001987  40.1790 200.1323 15.08787276 18401,6918.042,95.441,541.281,538.5319999999998,0.0
52870.0,STARLINK-4195,PAYLOAD,2022-10-11 14:00:01,15.08722203,0.0001483,53.218,213.6136,37.1009,214.7747,0.0112909999999999,0.00183536,0.0,0 STARLINK-4195,1 52870U 22062AS  22284.58334491  .00183536  00000-0  11291-1 0  9990,2 52870  53.2180 213.6136 0001483  37.1009 214.7747 15.08722203  1307,6918.24,95.445,541.131,539.0790000000002,0.0
52870.0,STARLINK-4195,PAYLOAD,2022-10-11 22:00:00,15.08836436,0.0001425,53.2175,212.117,37.6715,225.7384,5.0512e-05,5.16e-06,0.0,0 STARLINK-4195,1 52870U 22062AS  22284.91667824  .00000516  00000-0  50512-4 0  9994,2 52870  53.2175 212.1170 0001425  37.6715 225.7384 15.08836436 18501,6917.891,95.438,540.742,538.77,0.0
52870.0,STARLINK-4195,PAYLOAD,2022-10-12 14:00:01,15.08835717,0.0001949,53.2175,209.1238,36.3138,250.2812,0.00013368,1.84e-05,0.0,0 STARLINK-4195,1 52870U 22062AS  22285.58334491  .00001840  00000-0  13368-3 0  9997,2 52870  53.2175 209.1238 0001949  36.3138 250.2812 15.08835717  1308,6917.893,95.438,541.107,538.41,0.0
